[{"OBJECT_NAME":"STARLINK-5427","OBJECT_ID":"2022-177AK","EPOCH":"2026-03-09T22:00:01.999584","MEAN_MOTION":15.11827322,"ECCENTRICITY":0.00012614,"INCLINATION":42.9996,"RA_OF_ASC_NODE":119,"ARG_OF_PERICENTER":273.4181,"MEAN_ANOMALY":332.9987,"EPHEMERIS_TYPE":0,"CLASSIFICATION_TYPE":"U","NORAD_CAT_ID":54853,"ELEMENT_SET_NO":999,"REV_AT_EPOCH":573,"BSTAR":0.0013520454,"MEAN_MOTION_DOT":0.00023365,"MEAN_MOTION_DDOT":0},{"OBJECT_NAME":"CZ-4C DEB","OBJECT_ID":"2018-031H","EPOCH":"2026-03-09T10:10:58.582560","MEAN_MOTION":15.14033759,"ECCENTRICITY":0.00199639,"INCLINATION":98.1663,"RA_OF_ASC_NODE":242.9335,"ARG_OF_PERICENTER":272.748,"MEAN_ANOMALY":87.1465,"EPHEMERIS_TYPE":0,"CLASSIFICATION_TYPE":"U","NORAD_CAT_ID":43266,"ELEMENT_SET_NO":999,"REV_AT_EPOCH":43166,"BSTAR":0.00079064643,"MEAN_MOTION_DOT":0.00014379,"MEAN_MOTION_DDOT":0}]
